SatCatId,ObjectName,LaunchYear,OrbitalPeriod,LaunchMass,StatusCode,Status,UcsData,OrbitClass,LaunchSiteCountry,Owner,UseType,Purpose,LaunchVehicleClass,TLE1,TLE2
10586,COSMOS 979,1978,114.88,-1.0,UNK,Inactive,0,LEO,Russia,Russia/USSR,Unknown,Unknown,Unknown,1 10586U 78005D   22153.91430824 -.00000016  00000+0  87923-6 0  9996,2 10586  74.0318 351.3430 0016761  41.5744  24.3042 12.53464427 22300
10587,COSMOS 980,1978,115.3,-1.0,UNK,Inactive,0,LEO,Russia,Russia/USSR,Unknown,Unknown,Unknown,1 10587U 78005E   22154.15679714 -.00000018  00000+0 -16259-4 0  9992,2 10587  74.0284 174.0034 0007252  96.7564 330.9755 12.48915396 24163
10588,COSMOS 981,1978,115.53,-1.0,UNK,Inactive,0,LEO,Russia,Russia/USSR,Unknown,Unknown,Unknown,1 10588U 78005F   22153.62015810  .00000002  00000+0  12194-3 0  9999,2 10588  74.0310 273.6448 0020228 181.2160 190.3592 12.46434093 16525
10589,COSMOS 982,1978,115.75,-1.0,UNK,Inactive,0,LEO,Russia,Russia/USSR,Unknown,Unknown,Unknown,1 10589U 78005G   22153.83250194 -.00000012  00000+0  26347-4 0  9997,2 10589  74.0323   5.9918 0033192 295.8515  76.0353 12.44106327 16112
10590,COSMOS 983,1978,115.99,-1.0,UNK,Inactive,0,LEO,Russia,Russia/USSR,Unknown,Unknown,Unknown,1 10590U 78005H   22153.59561577 -.00000019  00000+0 -24048-4 0  9996,2 10590  74.0297 110.7388 0046192  45.3340 315.1456 12.41480380 11856
2401,OPS 2366 (TRANSIT 14),1966,106.39,-1.0,UNK,Inactive,0,LEO,USA,USA,Unknown,Unknown,Unknown,1 02401U 66076A   22153.67931532  .00000105  00000+0  13762-3 0  9998,2 02401  88.8653 235.6936 0030459 266.2829 252.1827 13.53448650751477
10594,SS 3,1977,103.36,-1.0,UNK,Inactive,0,LEO,USA,USA,Unknown,Unknown,Unknown,1 10594U 77112F   22154.22466641  .00001790  00000+0  21663-3 0  9999,2 10594  63.3138  41.2559 0667134 139.1404 226.1694 13.93218504160979
2403,OPS 0856,1966,167.47,-1.0,UNK,Inactive,0,MEO,USA,USA,Unknown,Unknown,Unknown,1 02403U 66077A   22153.74352259 -.00000052  00000+0 -26674-1 0  9999,2 02403  90.2988 259.5823 0018060 113.8499 246.4248  8.59859122399630
18788,COSMOS 1909,1988,114.03,-1.0,UNK,Inactive,0,LEO,Russia,Russia/USSR,Unknown,Unknown,Unknown,1 18788U 88002A   22153.74654873  .00000017  00000+0  36307-4 0  9997,2 18788  82.6087 135.6615 0002894  75.7289  97.5482 12.62810625584570
18789,COSMOS 1910,1988,113.96,-1.0,UNK,Inactive,0,LEO,Russia,Russia/USSR,Unknown,Unknown,Unknown,1 18789U 88002B   22153.65149514  .00000013  00000+0  11331-4 0  9995,2 18789  82.6003 114.3402 0003596 329.8417 203.3704 12.63573992585516
18790,COSMOS 1911,1988,113.89,-1.0,UNK,Inactive,0,LEO,Russia,Russia/USSR,Unknown,Unknown,Unknown,1 18790U 88002C   22153.65658838  .00000016  00000+0  26969-4 0  9997,2 18790  82.6068 109.7799 0006234 248.7379 284.1222 12.64327431586489
10599,COSMOS 985,1978,104.6,-1.0,UNK,Inactive,0,LEO,Russia,Russia/USSR,Unknown,Unknown,Unknown,1 10599U 78007A   22154.16122817  .00000059  00000+0  44682-4 0  9999,2 10599  82.9429  44.7448 0053071   2.7927 357.3516 13.76721596229105
18791,COSMOS 1912,1988,113.83,-1.0,UNK,Inactive,0,LEO,Russia,Russia/USSR,Unknown,Unknown,Unknown,1 18791U 88002D   22154.11690575  .00000027  00000+0  89023-4 0  9996,2 18791  82.6084 100.5919 0009734 218.8440 151.8611 12.65011322587625
18792,COSMOS 1913,1988,113.77,-1.0,UNK,Inactive,0,LEO,Russia,Russia/USSR,Unknown,Unknown,Unknown,1 18792U 88002E   22153.54697171  .00000029  00000+0  97474-4 0  9993,2 18792  82.6003  81.4574 0013314 188.7665 344.4254 12.65676862588073
18793,COSMOS 1914,1988,113.71,-1.0,UNK,Inactive,0,LEO,Russia,Russia/USSR,Unknown,Unknown,Unknown,1 18793U 88002F   22153.57191440  .00000029  00000+0  94042-4 0  9993,2 18793  82.6077  77.9671 0017960 139.1608  33.9458 12.66397373589009
2411,SECOR 7 (EGRS 7),1966,167.52,-1.0,UNK,Inactive,0,MEO,USA,USA,Unknown,Unknown,Unknown,1 02411U 66077B   22152.26167778  .00000008  00000+0  30221-2 0  9997,2 02411  90.2996 260.6653 0019443 105.2810 255.0192  8.59616541750462
2412,ERS 15,1966,167.62,-1.0,UNK,Inactive,0,MEO,USA,USA,Unknown,Unknown,Unknown,1 02412U 66077C   22154.24647146  .00000002  00000+0  00000+0 0  9993,2 02412  90.2996 260.5005 0011559 107.3950 252.8166  8.59074567747874
26985,DIRECTV 4S,2001,1450.69,-1.0,-,Inactive,0,GEO,French Guiana,USA,Unknown,Unknown,Unknown,1 26985U 01052A   22153.85876358 -.00000134  00000+0  00000+0 0  9998,2 26985   2.4742  88.6354 0006867 353.3843 222.8048  0.99262389 36420
26987,COSMOS 2382 [GLONASS-M],2001,675.72,-1.0,-,Inactive,0,MEO,Kazakhstan,Russia/USSR,Unknown,Unknown,Unknown,1 26987U 01053A   22153.80590921  .00000021  00000+0  00000+0 0  9999,2 26987  63.2427 110.1637 0005533 206.1865 283.0807  2.13105351159511
26988,COSMOS 2381 [GLONASS],2001,675.73,-1.0,-,Inactive,0,MEO,Kazakhstan,Russia/USSR,Unknown,Unknown,Unknown,1 26988U 01053B   22153.51667519  .00000018  00000+0  00000+0 0  9992,2 26988  63.2459 110.1966 0043602 222.9816 135.9805  2.13104193159575
26989,COSMOS 2380 [GLONASS],2001,675.73,-1.0,-,Inactive,0,MEO,Kazakhstan,Russia/USSR,Unknown,Unknown,Unknown,1 26989U 01053C   22154.44409178  .00000027  00000+0  00000+0 0  9991,2 26989  63.2390 110.1250 0004267  22.6181 158.8779  2.13103242159578
2418,OPS 6026 (DMSP 4A F1),1966,99.87,-1.0,-,Inactive,0,LEO,USA,USA,Unknown,Unknown,Unknown,1 02418U 66082A   22154.42321029  .00000150  00000+0  54744-4 0  9997,2 02418  98.1857 332.9611 0118992 172.5971 187.7012 14.41919627920339
26997,JASON-1,2001,112.15,-1.0,-,Inactive,0,LEO,USA,USA,Unknown,Unknown,Unknown,1 26997U 01055A   22153.62183248 -.00000068  00000+0 -28605-4 0  9991,2 26997  66.0390 276.0394 0009285 272.4091  99.8141 12.84007483959180
27001,METEOR-3M,2001,105.2,-1.0,UNK,Inactive,0,LEO,Kazakhstan,Russia/USSR,Unknown,Unknown,Unknown,1 27001U 01056A   22154.18840777 -.00000018  00000+0  32065-4 0  9997,2 27001  99.6779 301.0856 0013754  14.7302 158.1666 13.68865699 23154
27002,KOMPASS,2001,105.08,-1.0,UNK,Inactive,0,LEO,Kazakhstan,Russia/USSR,Unknown,Unknown,Unknown,1 27002U 01056B   22154.37685809 -.00000007  00000+0  43248-4 0  9995,2 27002  99.6089 294.2194 0018895 326.0481  52.0837 13.70365504 24274
27003,BADR-B,2001,105.09,-1.0,-,Inactive,0,LEO,Kazakhstan,Pakistan,Unknown,Unknown,Unknown,1 27003U 01056C   22154.12376844 -.00000023  00000+0  25184-4 0  9992,2 27003  99.6162 293.9953 0019740 326.9895  33.0018 13.70270843 24242
27005,REFLECTOR,2001,105.04,-1.0,UNK,Inactive,0,LEO,Kazakhstan,Russia/USSR,Unknown,Unknown,Unknown,1 27005U 01056E   22153.94667627  .00000034  00000+0  88492-4 0  9997,2 27005  99.5745 293.0320 0017433 315.1589  44.8146 13.70867404 24377
2435,ESSA 3 (TOS-A),1966,114.57,-1.0,-,Inactive,0,LEO,USA,USA,Unknown,Unknown,Unknown,1 02435U 66087A   22153.94857453 -.00000041  00000+0 -14391-5 0  9998,2 02435 100.9630 127.8614 0064540 106.0492 259.1548 12.56848253553679
18820,METEOR 2-17,1988,103.94,-1.0,UNK,Inactive,0,LEO,Russia,Russia/USSR,Unknown,Unknown,Unknown,1 18820U 88005A   22153.50964339  .00000056  00000+0  36424-4 0  9995,2 18820  82.5443  59.2411 0015156 271.3267 262.1492 13.85457017735838
18822,DMSP 5D-2 F9 (USA 29),1988,100.88,-1.0,-,Inactive,0,LEO,USA,USA,Unknown,Unknown,Unknown,1 18822U 88006A   22154.53190543  .00000094  00000+0  55346-4 0  9996,2 18822  98.3695   6.7946 0007602  99.2031 261.0011 14.27417543785834
10637,IUE,1978,1438.81,-1.0,-,Inactive,0,GEO,USA,USA,Unknown,Unknown,Unknown,1 10637U 78012A   22153.61995020 -.00000136  00000+0  00000+0 0  9999,2 10637  39.9890 310.2796 1612280 240.4187  89.1863  1.00082991114305
10664,KYOKKO (EXOS-A),1978,133.89,-1.0,-,Inactive,0,MEO,Japan,Japan,Unknown,Unknown,Unknown,1 10664U 78014A   22153.92511041 -.00000034  00000+0  54982-5 0  9993,2 10664  65.3731  19.4003 1904005  12.3668 351.7886 10.75529696724085
10669,OPS 6391 (FLTSATCOM 1),1978,1454.47,-1.0,-,Inactive,0,GEO,USA,USA,Unknown,Unknown,Unknown,1 10669U 78016A   22154.10674317 -.00000118  00000+0  00000+0 0  9996,2 10669  10.6247 306.6570 0008729 188.6176 165.1918  0.99005801740042
27055,COSMOS 2384,2001,114.3,-1.0,-,Inactive,0,LEO,Russia,Russia/USSR,Unknown,Unknown,Unknown,1 27055U 01058A   22154.48139540  .00000002  00000+0 -46051-4 0  9993,2 27055  82.5450  94.4492 0010042 345.7227  14.3579 12.59838011939620
2481,OPS 1920,1966,167.59,-1.0,UNK,Inactive,0,MEO,USA,USA,Unknown,Unknown,Unknown,1 02481U 66089A   22153.76683176  .00000006  00000+0  18334-2 0  9997,2 02481  89.7583  41.9649 0032582 356.7486   3.3150  8.59253204745937
10674,UME-2 (ISS-B),1978,107.17,-1.0,-,Inactive,0,LEO,Japan,Japan,Unknown,Unknown,Unknown,1 10674U 78018A   22153.99550676 -.00000042  00000+0  14567-4 0  9995,2 10674  69.3630 345.6757 0166087 267.8574 248.4119 13.43629218172762
27058,GONETS-D1 7,2001,114.1,-1.0,-,Inactive,0,LEO,Russia,Russia/USSR,Unknown,Unknown,Unknown,1 27058U 01058D   22154.15103068  .00000036  00000+0  14126-3 0  9999,2 27058  82.5362  68.1333 0004310  91.9632 268.1953 12.62033776941221
10676,COSMOS 990,1978,100.26,-1.0,UNK,Inactive,0,LEO,Russia,Russia/USSR,Unknown,Unknown,Unknown,1 10676U 78019A   22153.80339661  .00000052  00000+0  26648-4 0  9990,2 10676  74.0393 342.3169 0017342 314.3535  45.6196 14.36295499318136
27059,GONETS-D1 8,2001,114.15,-1.0,-,Inactive,0,LEO,Russia,Russia/USSR,Unknown,Unknown,Unknown,1 27059U 01058E   22153.89411640  .00000008  00000+0 -16529-4 0  9998,2 27059  82.5419  77.4350 0002553  16.1624 343.9547 12.61501993940785
27060,GONETS-D1 9,2001,114.01,-1.0,-,Inactive,0,LEO,Russia,Russia/USSR,Unknown,Unknown,Unknown,1 27060U 01058F   22153.54308286  .00000033  00000+0  12496-3 0  9998,2 27060  82.5424  63.6778 0009488  55.6743 304.5245 12.63010608941877
10684,NAVSTAR 1 (OPS 5111),1978,727.01,-1.0,-,Inactive,0,MEO,USA,USA,Unknown,Unknown,Unknown,1 10684U 78020A   22153.19573150 -.00000005  00000+0  00000+0 0  9994,2 10684  63.3443  97.0566 0080330 211.3978 148.0931  1.98072718307203
18877,SAKURA-3A (CS-3A),1988,1467.33,-1.0,-,Inactive,0,GEO,Japan,Japan,Unknown,Unknown,Unknown,1 18877U 88012A   22153.96367693 -.00000144  00000+0  00000+0 0  9990,2 18877  15.5533   2.8464 0005749 346.1692  10.9444  0.98136266113182
